OBJECT_NAME,OBJECT_ID,EPOCH,MEAN_MOTION,ECCENTRICITY,INCLINATION,RA_OF_ASC_NODE,ARG_OF_PERICENTER,MEAN_ANOMALY,EPHEMERIS_TYPE,CLASSIFICATION_TYPE,NORAD_CAT_ID,ELEMENT_SET_NO,REV_AT_EPOCH,BSTAR,MEAN_MOTION_DOT,MEAN_MOTION_DDOT
STARLINK-1494,2020-038AG,2026-05-16T16:00:01.999584,15.93605876,.00074473,53.0396,169.1834,5.2558,158.6296,0,U,45760,999,603,.66021323E-3,.241431E-2,.33404376E-4