STARLINK-1494           
1 45760U 20038AG  26136.66668981  .00241431  33404-4  66021-3 0  9994
2 45760  53.0396 169.1834 0007447   5.2558 158.6296 15.93605876  6035
